[{"OBJECT_NAME":"ASO-S","OBJECT_ID":"2022-129A","EPOCH":"2026-03-09T22:56:02.207040","MEAN_MOTION":14.52012554,"ECCENTRICITY":0.00151338,"INCLINATION":98.2779,"RA_OF_ASC_NODE":75.4501,"ARG_OF_PERICENTER":41.7143,"MEAN_ANOMALY":318.5203,"EPHEMERIS_TYPE":0,"CLASSIFICATION_TYPE":"U","NORAD_CAT_ID":54029,"ELEMENT_SET_NO":999,"REV_AT_EPOCH":18102,"BSTAR":8.1391382e-5,"MEAN_MOTION_DOT":2.85e-6,"MEAN_MOTION_DDOT":0},{"OBJECT_NAME":"COSMOS 2251 DEB","OBJECT_ID":"1993-036HG","EPOCH":"2026-03-09T18:02:57.939072","MEAN_MOTION":14.5028767,"ECCENTRICITY":0.00188704,"INCLINATION":74.0373,"RA_OF_ASC_NODE":326.4064,"ARG_OF_PERICENTER":90.1955,"MEAN_ANOMALY":326.5519,"EPHEMERIS_TYPE":0,"CLASSIFICATION_TYPE":"U","NORAD_CAT_ID":34021,"ELEMENT_SET_NO":999,"REV_AT_EPOCH":89891,"BSTAR":0.0004495073,"MEAN_MOTION_DOT":1.728e-5,"MEAN_MOTION_DDOT":0}]
